OBJECT_NAME,OBJECT_ID,EPOCH,MEAN_MOTION,ECCENTRICITY,INCLINATION,RA_OF_ASC_NODE,ARG_OF_PERICENTER,MEAN_ANOMALY,EPHEMERIS_TYPE,CLASSIFICATION_TYPE,NORAD_CAT_ID,ELEMENT_SET_NO,REV_AT_EPOCH,BSTAR,MEAN_MOTION_DOT,MEAN_MOTION_DDOT
HAIYANG-2D,2021-043A,2026-06-14T06:08:46.736736,13.83376538,.00113998,65.9992,311.9967,269.5009,90.4753,0,U,48621,999,25614,.1271875E-3,.59E-6,0
2021-050D,2021-050D,2026-06-14T07:32:07.114272,15.23302565,.00038807,97.3345,241.4145,276.1513,83.9282,0,U,48843,999,27852,.13323826E-3,.3092E-4,0
TYVAK-0173,2021-059P,2026-06-14T05:26:22.878816,14.81882158,.00103629,96.0086,242.3192,48.5909,311.6198,0,U,48892,999,26780,.20568428E-3,.1596E-4,0
MANDRAKE 2 ABLE,2021-059AE,2026-06-13T18:19:01.879680,15.54863616,.00047191,97.7028,354.2870,18.0048,342.1371,0,U,48907,999,27659,.3280515E-3,.21813E-3,0
MANDRAKE 2 BAKER,2021-059AF,2026-06-14T06:46:37.562880,15.59429262,.00031508,97.6995,357.6972,18.6378,341.4993,0,U,48908,999,27684,.32660583E-3,.25747E-3,0
PACE-1,2021-059AG,2026-06-14T02:43:22.719360,15.79362137,.00009646,97.6761,2.9094,283.5183,76.5976,0,U,48909,999,27731,.50613322E-3,.91589E-3,0
YAM-3,2021-059AN,2026-06-14T06:55:35.455584,15.48499312,.00052431,97.6987,352.0545,20.3690,339.7768,0,U,48915,999,27654,.21984974E-3,.11598E-3,0
FARADAY_PHOENIX,2021-059AX,2026-06-13T12:54:59.476032,15.77567535,.00027422,97.6816,2.1631,317.1599,42.9452,0,U,48924,999,27708,.7762953E-3,.130342E-2,0
DEMO8 (TENZING),2021-059CA,2026-06-14T06:44:44.085120,15.54895559,.00064852,97.7017,358.4799,7.0897,353.0446,0,U,48951,999,27685,.30001633E-3,.19967E-3,0
NAPA-2,2021-059CN,2026-06-14T07:37:13.255392,15.98951733,.00031023,97.6659,4.0943,239.6762,120.4209,0,U,48963,999,27735,.72326893E-3,.344921E-2,.51611315E-4
FENGYUN 3E,2021-062A,2026-06-14T07:30:04.485888,14.19904068,.0002835,98.7488,168.7525,89.9864,270.1637,0,U,49008,999,25617,.13898283E-4,-.14E-6,0
ISS (NAUKA),2021-066A,2026-06-14T02:14:17.517984,15.49219019,.00049359,51.6335,315.4063,183.6835,176.4118,0,U,49044,999,57076,.16324084E-3,.8623E-4,0
STARLINK-3100,2021-082Q,2026-06-14T02:28:05.448576,14.98325951,.00030135,70.0001,51.3563,269.7203,90.3611,0,U,49144,999,26042,.19656787E-4,.142E-5,0
CUTE,2021-088D,2026-06-14T05:38:02.511456,15.92383834,.00076757,97.4170,264.2458,233.0428,127.0144,0,U,49263,999,26208,.4638318E-3,.155482E-2,.11148192E-4
2021-091B,2021-091B,2026-06-14T07:01:08.308992,15.18539463,.0014844,97.4469,352.9112,54.9013,305.3610,0,U,49316,999,25854,.81386069E-4,.1616E-4,0
SDGSAT 1,2021-100A,2026-06-14T06:26:19.356576,15.19915883,.00066171,97.2641,212.3265,311.5578,48.5090,0,U,49387,999,25547,.12693643E-3,.2662E-4,0
TEIKYOSAT-4 (OORURI),2021-102B,2026-06-14T01:42:46.061280,15.09499305,.00106685,97.3671,194.6760,308.9733,51.0546,0,U,49396,999,25225,.1065075E-3,.1647E-4,0
Z-SAT,2021-102E,2026-06-14T07:09:13.160736,15.18246968,.00149017,97.3329,200.7082,256.3696,103.5879,0,U,49399,999,25300,.235199E-3,.4763E-4,0
HIBARI,2021-102F,2026-06-14T03:09:22.032000,15.31675063,.00110707,97.3241,211.0693,202.6588,157.4166,0,U,49400,999,25372,.38147297E-3,.11617E-3,0
KOSEN-1,2021-102H,2026-06-14T01:28:20.900064,15.26797048,.00128652,97.3188,207.2792,212.0017,148.0442,0,U,49402,999,25354,.31069184E-3,.8131E-4,0
GLOBAL-14,2021-106A,2026-06-14T02:57:08.822592,15.50466266,.00162836,42.0054,309.2887,357.3334,2.7421,0,U,49469,999,25765,.47618742E-3,.27772E-3,0
GAOFEN-3 02,2021-109A,2026-06-14T06:34:15.727296,14.42217248,.00031356,98.4085,173.4117,24.2904,335.8433,0,U,49495,999,23989,.63749979E-4,.167E-5,0
GLOBAL-12,2021-115BA,2026-06-13T23:39:08.016480,15.53411183,.00032471,53.1960,59.9337,63.0519,297.0824,0,U,49772,999,25540,.56263068E-3,.35929E-3,0
GLOBAL-13,2021-115BB,2026-06-14T00:24:03.458880,15.45931965,.00039621,53.1981,69.6586,102.9926,257.1525,0,U,49773,999,25527,.4587362E-3,.22324E-3,0
GLOBAL-17,2021-120A,2026-06-14T00:00:18.468000,15.52104314,.00153028,41.9957,68.2827,236.3899,123.5485,0,U,49949,999,25440,.47896755E-3,.29629E-3,0
GLOBAL-16,2021-120B,2026-06-14T00:13:30.460512,15.50041363,.00131476,41.9951,71.8993,228.2954,131.6766,0,U,49950,999,25435,.4721635E-3,.27066E-3,0
XW-3 (CAS-9),2021-131B,2026-06-14T06:40:05.515104,14.41355242,.00053359,98.4982,257.6830,103.2580,256.9204,0,U,50466,999,23469,.18071902E-3,.541E-5,0
ION SCV-004,2022-002K,2026-06-14T03:52:51.045024,15.30425440,.0007501,97.2839,222.8770,18.5314,341.6199,0,U,50993,999,24483,.18548179E-3,.5386E-4,0
ETV-A1,2022-002CE,2026-06-14T05:18:06.041664,15.40627662,.00048592,97.2885,231.5344,14.7075,345.4312,0,U,51060,999,24538,.26994364E-3,.10918E-3,0
BRO-5,2022-002CF,2026-06-14T06:37:33.382848,15.47218789,.00038723,97.3004,238.9191,344.4701,15.6430,0,U,51061,999,24580,.5267328E-3,.26762E-3,0
