HAIYANG-2D              
1 48621U 21043A   26165.25609649  .00000059  00000+0  12719-3 0  9998
2 48621  65.9992 311.9967 0011399 269.5009  90.4753 13.83376538256146
2021-050D               
1 48843U 21050D   26165.31397123  .00003092  00000+0  13324-3 0  9993
2 48843  97.3345 241.4145 0003880 276.1513  83.9282 15.23302565278523
TYVAK-0173              
1 48892U 21059P   26165.22665369  .00001596  00000+0  20568-3 0  9991
2 48892  96.0086 242.3192 0010362  48.5909 311.6198 14.81882158267800
MANDRAKE 2 ABLE         
1 48907U 21059AE  26164.76321620  .00021813  00000+0  32805-3 0  9996
2 48907  97.7028 354.2870 0004719  18.0048 342.1371 15.54863616276599
MANDRAKE 2 BAKER        
1 48908U 21059AF  26165.28237920  .00025747  00000+0  32661-3 0  9994
2 48908  97.6995 357.6972 0003150  18.6378 341.4993 15.59429262276842
PACE-1                  
1 48909U 21059AG  26165.11345740  .00091589  00000+0  50613-3 0  9991
2 48909  97.6761   2.9094 0000964 283.5183  76.5976 15.79362137277315
YAM-3                   
1 48915U 21059AN  26165.28860481  .00011598  00000+0  21985-3 0  9992
2 48915  97.6987 352.0545 0005243  20.3690 339.7768 15.48499312276546
FARADAY_PHOENIX         
1 48924U 21059AX  26164.53818838  .00130342  00000+0  77630-3 0  9995
2 48924  97.6816   2.1631 0002742 317.1599  42.9452 15.77567535277080
DEMO8 (TENZING)         
1 48951U 21059CA  26165.28106580  .00019967  00000+0  30002-3 0  9993
2 48951  97.7017 358.4799 0006485   7.0897 353.0446 15.54895559276858
NAPA-2                  
1 48963U 21059CN  26165.31751453  .00344921  51611-4  72327-3 0  9991
2 48963  97.6659   4.0943 0003102 239.6762 120.4209 15.98951733277358
FENGYUN 3E              
1 49008U 21062A   26165.31255192 -.00000014  00000+0  13898-4 0  9998
2 49008  98.7488 168.7525 0002835  89.9864 270.1637 14.19904068256172
ISS (NAUKA)             
1 49044U 21066A   26165.09325831  .00008623  00000+0  16324-3 0  9994
2 49044  51.6335 315.4063 0004935 183.6835 176.4118 15.49219019570767
STARLINK-3100           
1 49144U 21082Q   26165.10284084  .00000142  00000+0  19657-4 0  9990
2 49144  70.0001  51.3563 0003013 269.7203  90.3611 14.98325951260422
CUTE                    
1 49263U 21088D   26165.23475129  .00155482  11148-4  46383-3 0  9997
2 49263  97.4170 264.2458 0007675 233.0428 127.0144 15.92383834262085
2021-091B               
1 49316U 21091B   26165.29245728  .00001616  00000+0  81386-4 0  9998
2 49316  97.4469 352.9112 0014844  54.9013 305.3610 15.18539463258547
SDGSAT 1                
1 49387U 21100A   26165.26827959  .00002662  00000+0  12694-3 0  9993
2 49387  97.2641 212.3265 0006617 311.5578  48.5090 15.19915883255472
TEIKYOSAT-4 (OORURI)    
1 49396U 21102B   26165.07136645  .00001647  00000+0  10651-3 0  9992
2 49396  97.3671 194.6760 0010668 308.9733  51.0546 15.09499305252255
Z-SAT                   
1 49399U 21102E   26165.29806899  .00004763  00000+0  23520-3 0  9995
2 49399  97.3329 200.7082 0014901 256.3696 103.5879 15.18246968253003
HIBARI                  
1 49400U 21102F   26165.13150500  .00011617  00000+0  38147-3 0  9999
2 49400  97.3241 211.0693 0011070 202.6588 157.4166 15.31675063253723
KOSEN-1                 
1 49402U 21102H   26165.06135301  .00008131  00000+0  31069-3 0  9998
2 49402  97.3188 207.2792 0012865 212.0017 148.0442 15.26797048253542
GLOBAL-14               
1 49469U 21106A   26165.12301878  .00027772  00000+0  47619-3 0  9996
2 49469  42.0054 309.2887 0016283 357.3334   2.7421 15.50466266257656
GAOFEN-3 02             
1 49495U 21109A   26165.27379314  .00000167  00000+0  63750-4 0  9998
2 49495  98.4085 173.4117 0003135  24.2904 335.8433 14.42217248239899
GLOBAL-12               
1 49772U 21115BA  26164.98550945  .00035929  00000+0  56263-3 0  9995
2 49772  53.1960  59.9337 0003247  63.0519 297.0824 15.53411183255401
GLOBAL-13               
1 49773U 21115BB  26165.01670670  .00022324  00000+0  45874-3 0  9990
2 49773  53.1981  69.6586 0003962 102.9926 257.1525 15.45931965255274
GLOBAL-17               
1 49949U 21120A   26165.00021375  .00029629  00000+0  47897-3 0  9994
2 49949  41.9957  68.2827 0015302 236.3899 123.5485 15.52104314254405
GLOBAL-16               
1 49950U 21120B   26165.00938033  .00027066  00000+0  47216-3 0  9992
2 49950  41.9951  71.8993 0013147 228.2954 131.6766 15.50041363254350
XW-3 (CAS-9)            
1 50466U 21131B   26165.27784161  .00000541  00000+0  18072-3 0  9995
2 50466  98.4982 257.6830 0005335 103.2580 256.9204 14.41355242234692
ION SCV-004             
1 50993U 22002K   26165.16170191  .00005386  00000+0  18548-3 0  9998
2 50993  97.2839 222.8770 0007501  18.5314 341.6199 15.30425440244831
ETV-A1                  
1 51060U 22002CE  26165.22090326  .00010918  00000+0  26994-3 0  9993
2 51060  97.2885 231.5344 0004859  14.7075 345.4312 15.40627662245388
BRO-5                   
1 51061U 22002CF  26165.27608082  .00026762  00000+0  52673-3 0  9990
2 51061  97.3004 238.9191 0003872 344.4701  15.6430 15.47218789245804
